NOAA 15                 
1 25338U 98030A   24178.49463402  .00000305  00000+0  14403-3 0  9997
2 25338  98.5677 205.4268 0009179 301.0232  59.0046 14.26611528358768
DMSP 5D-3 F16 (USA 172) 
1 28054U 03048A   24178.50084330  .00000119  00000+0  86774-4 0  9995
2 28054  99.0200 185.0561 0007938  34.1976  83.7077 14.14041397 67597
NOAA 18                 
1 28654U 05018A   24178.41196295  .00000289  00000+0  17792-3 0  9995
2 28654  98.8744 255.3004 0014793  41.2597 318.9690 14.13238485984565
METEOSAT-9 (MSG-2)      
1 28912U 05049B   24170.89274675  .00000150  00000+0  00000+0 0  9996
2 28912   7.6905  60.8403 0003099 222.0026 351.9854  1.00141344 67777
EWS-G1 (GOES 13)        
1 29155U 06018A   24178.49966632 -.00000059  00000+0  00000+0 0  9997
2 29155   2.6496  85.1996 0080145 255.6688 308.0663  0.99087344 66256
DMSP 5D-3 F17 (USA 191) 
1 29522U 06050A   24178.45292210  .00000121  00000+0  85641-4 0  9999
2 29522  98.7431 188.8377 0009281 318.9720  41.0754 14.14491806910500
FENGYUN 3A              
1 32958U 08026A   24178.48071513  .00000208  00000+0  11987-3 0  9992
2 32958  98.6042 125.3311 0009683  50.4201 309.7829 14.19109939833279
NOAA 19                 
1 33591U 09005A   24178.43544764  .00000270  00000+0  16914-3 0  9996
2 33591  99.0466 234.3323 0012754 265.5029  94.4685 14.13033771792931
GOES 14                 
1 35491U 09033A   24178.44538873 -.00000062  00000+0  00000+0 0  9998
2 35491   0.3615 103.2206 0003970 358.2399 225.4043  1.00271825 54927
DMSP 5D-3 F18 (USA 210) 
1 35951U 09057A   24178.46187797  .00000359  00000+0  21154-3 0  9997
2 35951  98.8138 153.6868 0011914 135.6731 224.5398 14.14146502757674
EWS-G2 (GOES 15)        
1 36411U 10008A   24178.11275691  .00000045  00000+0  00000+0 0  9995
2 36411   0.3251  89.2864 0002459  97.9740 189.2829  1.00269222 52405
COMS 1                  
1 36744U 10032A   24177.83985778 -.00000340  00000+0  00000+0 0  9992
2 36744   2.9600  84.2928 0001016  13.1324 247.5111  1.00270821 51422
FENGYUN 3B              
1 37214U 10059A   24178.54763022  .00000152  00000+0  10284-3 0  9998
2 37214  99.0541 206.7704 0023172  67.5489   7.0106 14.14511300705575
SUOMI NPP               
1 37849U 11061A   24178.48733491  .00000159  00000+0  95974-4 0  9993
2 37849  98.7223 116.3282 0000568 129.5398 230.5828 14.19521460656180
FENGYUN 2F              
1 38049U 12002A   24177.55044494 -.00000354  00000+0  00000+0 0  9996
2 38049   5.6140  73.0568 0001498 111.2496  40.0116  1.00279129 45649
METEOSAT-10 (MSG-3)     
1 38552U 12035B   24178.17220755 -.00000003  00000+0  00000+0 0  9997
2 38552   2.9847  61.0665 0000569 333.5072 302.3000  1.00267971 43987
METOP-B                 
1 38771U 12049A   24178.46453730  .00000193  00000+0  10790-3 0  9998
2 38771  98.6274 235.4796 0001523  88.8987 271.2365 14.21442879610868
INSAT-3D                
1 39216U 13038B   24177.61602647 -.00000150  00000+0  00000+0 0  9994
2 39216   0.0603 100.9311 0000654 138.8040 338.3556  1.00271304 39841
FENGYUN 3C              
1 39260U 13052A   24178.49281769  .00000132  00000+0  87364-4 0  9996
2 39260  98.4281 177.6058 0010010 304.3718  55.6510 14.16221397556640
METEOR-M 2              
1 40069U 14037A   24178.46598007  .00000182  00000+0  10318-3 0  9991
2 40069  98.4362 172.2891 0005315 344.3576  15.7436 14.20984170516946
HIMAWARI-8              
1 40267U 14060A   24177.77079153 -.00000270  00000+0  00000+0 0  9998
2 40267   0.0469 216.1465 0000866 260.4166 215.9638  1.00269942 35522
FENGYUN 2G              
1 40367U 14090A   24177.83420132 -.00000298  00000+0  00000+0 0  9996
2 40367   3.8120  81.4481 0003167 109.8673 123.0950  1.00266019 34768
METEOSAT-11 (MSG-4)     
1 40732U 15034A   24171.59020498  .00000087  00000+0  00000+0 0  9994
2 40732   1.3918  69.1738 0001876 153.3473 267.8398  1.00279855   552
ELEKTRO-L 2             
1 41105U 15074A   24178.38397691 -.00000114  00000+0  00000+0 0  9991
2 41105   4.8646  79.3683 0000815 137.4759 181.9112  1.00270422 31282
INSAT-3DR               
1 41752U 16054A   24177.97271837 -.00000072  00000+0  00000+0 0  9998
2 41752   0.1244  93.4310 0010127 174.1296  71.2014  1.00271424 28560
HIMAWARI-9              
1 41836U 16064A   24178.51924524 -.00000270  00000+0  00000+0 0  9991
2 41836   0.0359 159.6665 0000986 309.4077 133.7422  1.00271669 28073
GOES 16                 
1 41866U 16071A   24178.44349404 -.00000244  00000+0  00000+0 0  9993
2 41866   0.0799 252.7348 0000443 195.7155 271.0594  1.00271439 27876
FENGYUN 4A              
1 41882U 16077A   24177.83159062 -.00000196  00000+0  00000+0 0  9994
2 41882   0.4795  85.8208 0008289 345.1887 229.7133  1.00267553 27694
CYGFM05                 
1 41884U 16078A   24176.59920768  .00008384  00000+0  30735-3 0  9996
2 41884  34.9548 254.1541 0012319 263.1330  96.7984 15.27167282417215
CYGFM04                 
1 41885U 16078B   24176.45175856  .00008076  00000+0  28822-3 0  9994
2 41885  34.9410 239.0877 0009752 284.2562  75.7070 15.28080684417287
CYGFM02                 
1 41886U 16078C   24176.60560873  .00008415  00000+0  29702-3 0  9994
2 41886  34.9512 240.3515 0012543 273.4564  86.4717 15.28401747417395
CYGFM01                 
1 41887U 16078D   24176.64794136  .00007940  00000+0  29281-3 0  9994
2 41887  34.9478 257.6974 0011970 252.1041 107.8369 15.26984761417159
CYGFM08                 
1 41888U 16078E   24176.59552315  .00008347  00000+0  29923-3 0  9995
2 41888  34.9485 246.1355 0012958 276.2439  83.6800 15.27894147417328
CYGFM07                 
1 41890U 16078G   24177.42045802  .00008300  00000+0  29490-3 0  9997
2 41890  34.9480 232.3351 0009574 291.0234  68.9457 15.28222652417441
CYGFM03                 
1 41891U 16078H   24176.47592231  .00009017  00000+0  32112-3 0  9996
2 41891  34.9494 239.5217 0010588 266.6621  93.2884 15.28121448417437
FENGYUN 3D              
1 43010U 17072A   24178.47046348  .00000149  00000+0  92325-4 0  9991
2 43010  98.9110 133.1796 0001118   1.0929 359.0249 14.19361364342739
NOAA 20 (JPSS-1)        
1 43013U 17073A   24178.43418238  .00000119  00000+0  76914-4 0  9995
2 43013  98.7064 116.2016 0001327 129.9020 230.2273 14.19599965342219
GOES 17                 
1 43226U 18022A   24178.17341244 -.00000086  00000+0  00000+0 0  9991
2 43226   0.0146 154.8060 0001004 335.1048 102.5938  1.00270899 23204
FENGYUN 2H              
1 43491U 18050A   24177.82688292 -.00000122  00000+0  00000+0 0  9995
2 43491   1.1647  87.2431 0001822  40.0904 163.9663  1.00268083 22205
METOP-C                 
1 43689U 18087A   24178.50302802  .00000200  00000+0  11161-3 0  9990
2 43689  98.7230 237.6708 0003036  75.4423 284.7091 14.21479300292444
GEO-KOMPSAT-2A          
1 43823U 18100A   24177.63382619 -.00000338  00000+0  00000+0 0  9992
2 43823   0.0506 126.6049 0002322 325.9692 178.1109  1.00269725 20399
METEOR-M2 2             
1 44387U 19038A   24178.49632430  .00000076  00000+0  52708-4 0  9998
2 44387  98.8270 147.7567 0000633   1.8055 358.3125 14.23896357258718
ARKTIKA-M 1             
1 47719U 21016A   24177.22731992  .00000178  00000+0  00000+0 0  9998
2 47719  63.1394 150.8550 6944166 268.6828  17.9211  2.00608368 24309
FENGYUN 3E              
1 49008U 21062A   24178.50905564  .00000020  00000+0  30263-4 0  9997
2 49008  98.7316 179.6626 0002084  40.3676 319.7654 14.19760490154314
GOES 18                 
1 51850U 22021A   24178.00952082  .00000102  00000+0  00000+0 0  9995
2 51850   0.0429 183.6425 0000539 292.4705  24.9261  1.00270707  8579
NOAA 21 (JPSS-2)        
1 54234U 22150A   24177.90591955  .00000121  00000+0  78219-4 0  9996
2 54234  98.7518 115.6975 0001872  98.9531 261.1857 14.19529842 84215
METEOSAT-12 (MTG-I1)    
1 54743U 22170C   24177.88799501 -.00000002  00000+0  00000+0 0  9994
2 54743   0.5253  43.0184 0001791  49.8862 140.8696  1.00274558  5747
TIANMU-1 03             
1 55973U 23039A   24177.53546088  .00007732  00000+0  33188-3 0  9990
2 55973  97.4702 328.1046 0006823 137.5039 222.6727 15.22968415 70122
TIANMU-1 04             
1 55974U 23039B   24177.38751128  .00007533  00000+0  32348-3 0  9993
2 55974  97.4622 327.5116 0007802 137.6529 222.5311 15.22956065 70090
TIANMU-1 05             
1 55975U 23039C   24177.17400289  .00000154  00000+0  95408-5 0  9990
2 55975  97.4666 327.6325 0006518 151.7140 208.4452 15.22993949 70058
TIANMU-1 06             
1 55976U 23039D   24177.09197297  .00001341  00000+0  59970-4 0  9996
2 55976  97.4678 327.6693 0006515 154.5779 205.5780 15.23048782 70044
METEOR-M2 3             
1 57166U 23091A   24178.46126081  .00000043  00000+0  37870-4 0  9995
2 57166  98.7122 233.0516 0005151 101.3630 258.8128 14.23900771 51949
TIANMU-1 07             
1 57399U 23101A   24178.46078574  .00006632  00000+0  33616-3 0  9991
2 57399  97.3619 235.3539 0006204 143.6335 216.5321 15.17267239 51837
TIANMU-1 08             
1 57400U 23101B   24178.49604165  .00006794  00000+0  34403-3 0  9992
2 57400  97.3609 235.2599 0008297 151.4857 208.6832 15.17280559 51833
TIANMU-1 09             
1 57401U 23101C   24178.47905162  .00006639  00000+0  33637-3 0  9998
2 57401  97.3564 235.0804 0008821 148.1389 212.0380 15.17263233 51834
TIANMU-1 10             
1 57402U 23101D   24178.51130250  .00007694  00000+0  38930-3 0  9995
2 57402  97.3643 235.3964 0010977 148.8065 211.3822 15.17242722 51839
FENGYUN 3F              
1 57490U 23111A   24178.46295974  .00000124  00000+0  79491-4 0  9991
2 57490  98.7695 247.5089 0001929  81.9702 278.1693 14.19829600 46583
ARKTIKA-M 2             
1 58584U 23198A   24177.45814784  .00000147  00000+0  00000+0 0  9995
2 58584  63.2557 234.6366 6984958 269.8265  17.2320  2.00614066  3831
TIANMU-1 11             
1 58645U 23205A   24178.49706558  .00006110  00000+0  32821-3 0  9992
2 58645  97.4020 203.3465 0011728  21.5344 338.6379 15.15211977 27921
TIANMU-1 12             
1 58646U 23205B   24178.44633076  .00005731  00000+0  30786-3 0  9998
2 58646  97.4007 203.2270 0009993  16.0454 344.1094 15.15251560 27908
TIANMU-1 13             
1 58647U 23205C   24178.47906439  .00006662  00000+0  35733-3 0  9999
2 58647  97.4037 203.2562 0009424   1.2882 358.8373 15.15247340 27909
TIANMU-1 14             
1 58648U 23205D   24177.53838251  .00005394  00000+0  29007-3 0  9990
2 58648  97.3962 202.1964 0010027   4.7929 355.3397 15.15237427 27768
TIANMU-1 19             
1 58660U 23208A   24178.47023938  .00007259  00000+0  38966-3 0  9995
2 58660  97.4123 290.6289 0008333 340.4298  19.6613 15.15200119 27578
TIANMU-1 20             
1 58661U 23208B   24178.46892779  .00007607  00000+0  39900-3 0  9998
2 58661  97.4051 290.6037 0009346 350.8047   9.3014 15.15995320 27589
TIANMU-1 21             
1 58662U 23208C   24178.45645748  .00008319  00000+0  42502-3 0  9993
2 58662  97.4091 290.8671 0008984 351.2637   8.8439 15.16895941 27592
TIANMU-1 22             
1 58663U 23208D   24178.48683357  .00007018  00000+0  37723-3 0  9999
2 58663  97.4108 290.7192 0005005  11.9019 348.2331 15.15180075 27589
TIANMU-1 15             
1 58700U 24004A   24178.52741178  .00006426  00000+0  34569-3 0  9994
2 58700  97.4626 359.4587 0010405  28.6411 331.5391 15.15152760 26184
TIANMU-1 16             
1 58701U 24004B   24178.51009551  .00006542  00000+0  35149-3 0  9990
2 58701  97.4555 359.3134 0010549  34.3716 325.8197 15.15189508 26184
TIANMU-1 17             
1 58702U 24004C   24178.49515517  .00005945  00000+0  32013-3 0  9995
2 58702  97.4598 359.4330 0008300  31.7022 328.4709 15.15164022 26175
TIANMU-1 18             
1 58703U 24004D   24178.47821923  .00005126  00000+0  27641-3 0  9997
2 58703  97.4612 359.4903 0007266  23.4568 336.6994 15.15191232 26172
INSAT-3DS               
1 58990U 24033A   24171.63670715 -.00000142  00000+0  00000+0 0  9999
2 58990   0.0159 349.8168 0010402 105.1251 125.6022  1.00268037   992
METEOR-M2 4             
1 59051U 24039A   24178.49155469  .00000062  00000+0  47291-4 0  9997
2 59051  98.5979 140.1559 0008258  96.2858 263.9261 14.22234095 16812
